{
  "type": "FeatureCollection",
  "features": [
    {
      "type": "Feature",
      "properties": {
        "norad_id": 33972,
        "name": "COSMOS 2251 DEB",
        "group": "cosmos-2251-debris",
        "lat": -72.57512009056144,
        "lon": 94.92208733943203,
        "alt_km": 815.5673679228667,
        "timestamp": "2025-12-02T21:34:01.663898+00:00",
        "meta_object_name": "COSMOS 2251 DEB",
        "meta_object_id": "1993-036FF",
        "meta_epoch": "2025-12-02T02:39:00.139392",
        "meta_mean_motion": 14.36101943,
        "meta_eccentricity": 0.01228619,
        "meta_inclination": 73.9949,
        "meta_ra_of_asc_node": 210.2361,
        "meta_arg_of_pericenter": 20.3713,
        "meta_mean_anomaly": 130.5233,
        "meta_ephemeris_type": 0,
        "meta_classification_type": "U",
        "meta_norad_cat_id": 33972,
        "meta_element_set_no": 999,
        "meta_rev_at_epoch": 86921,
        "meta_bstar": 0.0012858342,
        "meta_mean_motion_dot": 4.055e-05,
        "meta_mean_motion_ddot": 0,
        "tle_line1": "1 33972U 93036FF  25336.11041828  .00004055  00000+0  12858-2 0  9998",
        "tle_line2": "2 33972  73.9949 210.2361 0122861  20.3713 130.5233 14.36101943869213"
      },
      "geometry": {
        "type": "Point",
        "coordinates": [
          94.92208733943203,
          -72.57512009056144
        ]
      }
    },
    {
      "type": "Feature",
      "properties": {
        "norad_id": 33973,
        "name": "COSMOS 2251 DEB",
        "group": "cosmos-2251-debris",
        "lat": 46.90180058456918,
        "lon": 139.1155212885351,
        "alt_km": 746.5230750680703,
        "timestamp": "2025-12-02T21:34:01.663908+00:00",
        "meta_object_name": "COSMOS 2251 DEB",
        "meta_object_id": "1993-036FG",
        "meta_epoch": "2025-12-02T11:41:02.976000",
        "meta_mean_motion": 14.45372062,
        "meta_eccentricity": 0.0047099,
        "meta_inclination": 74.0067,
        "meta_ra_of_asc_node": 122.0353,
        "meta_arg_of_pericenter": 302.3868,
        "meta_mean_anomaly": 124.7815,
        "meta_ephemeris_type": 0,
        "meta_classification_type": "U",
        "meta_norad_cat_id": 33973,
        "meta_element_set_no": 999,
        "meta_rev_at_epoch": 88452,
        "meta_bstar": 0.00020195,
        "meta_mean_motion_dot": 6.92e-06,
        "meta_mean_motion_ddot": 0,
        "tle_line1": "1 33973U 93036FG  25336.48684000  .00000692  00000+0  20195-3 0  9991",
        "tle_line2": "2 33973  74.0067 122.0353 0047099 302.3868 124.7815 14.45372062884525"
      },
      "geometry": {
        "type": "Point",
        "coordinates": [
          139.1155212885351,
          46.90180058456918
        ]
      }
    },
    {
      "type": "Feature",
      "properties": {
        "norad_id": 33975,
        "name": "COSMOS 2251 DEB",
        "group": "cosmos-2251-debris",
        "lat": 41.69175024133375,
        "lon": -93.2543452431126,
        "alt_km": 910.0743352166883,
        "timestamp": "2025-12-02T21:34:01.663918+00:00",
        "meta_object_name": "COSMOS 2251 DEB",
        "meta_object_id": "1993-036FJ",
        "meta_epoch": "2025-12-02T10:36:51.886944",
        "meta_mean_motion": 14.00485665,
        "meta_eccentricity": 0.0191498,
        "meta_inclination": 73.8011,
        "meta_ra_of_asc_node": 102.5534,
        "meta_arg_of_pericenter": 237.0205,
        "meta_mean_anomaly": 121.2394,
        "meta_ephemeris_type": 0,
        "meta_classification_type": "U",
        "meta_norad_cat_id": 33975,
        "meta_element_set_no": 999,
        "meta_rev_at_epoch": 85685,
        "meta_bstar": 0.00092698,
        "meta_mean_motion_dot": 1.586e-05,
        "meta_mean_motion_ddot": 0,
        "tle_line1": "1 33975U 93036FJ  25336.44226721  .00001586  00000+0  92698-3 0  9991",
        "tle_line2": "2 33975  73.8011 102.5534 0191498 237.0205 121.2394 14.00485665856853"
      },
      "geometry": {
        "type": "Point",
        "coordinates": [
          -93.2543452431126,
          41.69175024133375
        ]
      }
    },
    {
      "type": "Feature",
      "properties": {
        "norad_id": 33980,
        "name": "COSMOS 2251 DEB",
        "group": "cosmos-2251-debris",
        "lat": 70.26843499162213,
        "lon": 131.17141085167725,
        "alt_km": 708.0102974620086,
        "timestamp": "2025-12-02T21:34:01.663928+00:00",
        "meta_object_name": "COSMOS 2251 DEB",
        "meta_object_id": "1993-036FP",
        "meta_epoch": "2025-12-02T10:01:07.788000",
        "meta_mean_motion": 14.58529651,
        "meta_eccentricity": 0.0029289,
        "meta_inclination": 74.0214,
        "meta_ra_of_asc_node": 79.0664,
        "meta_arg_of_pericenter": 225.8008,
        "meta_mean_anomaly": 207.1906,
        "meta_ephemeris_type": 0,
        "meta_classification_type": "U",
        "meta_norad_cat_id": 33980,
        "meta_element_set_no": 999,
        "meta_rev_at_epoch": 88644,
        "meta_bstar": 0.0011252,
        "meta_mean_motion_dot": 5.235e-05,
        "meta_mean_motion_ddot": 0,
        "tle_line1": "1 33980U 93036FP  25336.41745125  .00005235  00000+0  11252-2 0  9999",
        "tle_line2": "2 33980  74.0214  79.0664 0029289 225.8008 207.1906 14.58529651886441"
      },
      "geometry": {
        "type": "Point",
        "coordinates": [
          131.17141085167725,
          70.26843499162213
        ]
      }
    },
    {
      "type": "Feature",
      "properties": {
        "norad_id": 33982,
        "name": "COSMOS 2251 DEB",
        "group": "cosmos-2251-debris",
        "lat": -54.058408242705795,
        "lon": -138.1158239593051,
        "alt_km": 751.6014127406306,
        "timestamp": "2025-12-02T21:34:01.663938+00:00",
        "meta_object_name": "COSMOS 2251 DEB",
        "meta_object_id": "1993-036FR",
        "meta_epoch": "2025-12-02T06:00:19.495296",
        "meta_mean_motion": 14.60152241,
        "meta_eccentricity": 0.0074808,
        "meta_inclination": 74.0705,
        "meta_ra_of_asc_node": 19.9187,
        "meta_arg_of_pericenter": 67.536,
        "meta_mean_anomaly": 2.6455,
        "meta_ephemeris_type": 0,
        "meta_classification_type": "U",
        "meta_norad_cat_id": 33982,
        "meta_element_set_no": 999,
        "meta_rev_at_epoch": 89006,
        "meta_bstar": 0.00041821,
        "meta_mean_motion_dot": 2.064e-05,
        "meta_mean_motion_ddot": 0,
        "tle_line1": "1 33982U 93036FR  25336.25022564  .00002064  00000+0  41821-3 0  9991",
        "tle_line2": "2 33982  74.0705  19.9187 0074808  67.5360   2.6455 14.60152241890060"
      },
      "geometry": {
        "type": "Point",
        "coordinates": [
          -138.1158239593051,
          -54.058408242705795
        ]
      }
    },
    {
      "type": "Feature",
      "properties": {
        "norad_id": 33983,
        "name": "COSMOS 2251 DEB",
        "group": "cosmos-2251-debris",
        "lat": 31.808663598922465,
        "lon": -24.689838281907694,
        "alt_km": 729.7158184953887,
        "timestamp": "2025-12-02T21:34:01.663948+00:00",
        "meta_object_name": "COSMOS 2251 DEB",
        "meta_object_id": "1993-036FS",
        "meta_epoch": "2025-12-02T12:45:18.456768",
        "meta_mean_motion": 14.50601982,
        "meta_eccentricity": 0.0021423,
        "meta_inclination": 74.0488,
        "meta_ra_of_asc_node": 166.2175,
        "meta_arg_of_pericenter": 270.2099,
        "meta_mean_anomaly": 120.0351,
        "meta_ephemeris_type": 0,
        "meta_classification_type": "U",
        "meta_norad_cat_id": 33983,
        "meta_element_set_no": 999,
        "meta_rev_at_epoch": 88481,
        "meta_bstar": 0.00063744,
        "meta_mean_motion_dot": 2.48e-05,
        "meta_mean_motion_ddot": 0,
        "tle_line1": "1 33983U 93036FS  25336.53146362  .00002480  00000+0  63744-3 0  9996",
        "tle_line2": "2 33983  74.0488 166.2175 0021423 270.2099 120.0351 14.50601982884815"
      },
      "geometry": {
        "type": "Point",
        "coordinates": [
          -24.689838281907694,
          31.808663598922465
        ]
      }
    },
    {
      "type": "Feature",
      "properties": {
        "norad_id": 33984,
        "name": "COSMOS 2251 DEB",
        "group": "cosmos-2251-debris",
        "lat": 54.83381034655878,
        "lon": 30.12045435728341,
        "alt_km": 681.8405261637099,
        "timestamp": "2025-12-02T21:34:01.663959+00:00",
        "meta_object_name": "COSMOS 2251 DEB",
        "meta_object_id": "1993-036FT",
        "meta_epoch": "2025-12-02T12:02:21.447168",
        "meta_mean_motion": 14.66215855,
        "meta_eccentricity": 0.0023762,
        "meta_inclination": 74.0101,
        "meta_ra_of_asc_node": 6.8701,
        "meta_arg_of_pericenter": 207.3945,
        "meta_mean_anomaly": 276.4452,
        "meta_ephemeris_type": 0,
        "meta_classification_type": "U",
        "meta_norad_cat_id": 33984,
        "meta_element_set_no": 999,
        "meta_rev_at_epoch": 88916,
        "meta_bstar": 0.0010193,
        "meta_mean_motion_dot": 5.609e-05,
        "meta_mean_motion_ddot": 0,
        "tle_line1": "1 33984U 93036FT  25336.50163712  .00005609  00000+0  10193-2 0  9997",
        "tle_line2": "2 33984  74.0101   6.8701 0023762 207.3945 276.4452 14.66215855889169"
      },
      "geometry": {
        "type": "Point",
        "coordinates": [
          30.12045435728341,
          54.83381034655878
        ]
      }
    }
  ]
}